NORAD_CAT_ID,OBJECT_NAME,OBJECT_TYPE,EPOCH,MEAN_MOTION,ECCENTRICITY,INCLINATION,RA_OF_ASC_NODE,ARG_OF_PERICENTER,MEAN_ANOMALY,BSTAR,MEAN_MOTION_DOT,MEAN_MOTION_DDOT,TLE_LINE0,TLE_LINE1,TLE_LINE2,SEMIMAJOR_AXIS,PERIOD,APOGEE,PERIGEE,DECAYED
53983.0,STARLINK-5103,PAYLOAD,2023-07-08 08:39:01,15.08841184,0.0001022,53.2167,262.3817,86.5315,273.5794,4.8777e-05,4.89e-06,0.0,0 STARLINK-5103,1 53983U 22125V   23189.36042869  .00000489  00000-0  48777-4 0  9999,2 53983  53.2167 262.3817 0001022  86.5315 273.5794 15.08841184 42436,6917.877,95.437,540.449,539.035,0.0
53983.0,STARLINK-5103,PAYLOAD,2023-07-09 03:43:39,15.08831415,8.77e-05,53.2169,258.8148,73.5571,286.5518,1.8721e-05,1e-07,0.0,0 STARLINK-5103,1 53983U 22125V   23190.15531631  .00000010  00000-0  18721-4 0  9994,2 53983  53.2169 258.8148 0000877  73.5571 286.5518 15.08831415 42559,6917.907,95.438,540.378,539.165,0.0
53983.0,STARLINK-5103,PAYLOAD,2023-07-10 05:09:49,15.08838005,9.47e-05,53.2166,254.0562,82.4663,277.6437,6.4555e-05,7.4e-06,0.0,0 STARLINK-5103,1 53983U 22125V   23191.21515451  .00000740  00000-0  64555-4 0  9990,2 53983  53.2166 254.0562 0000947  82.4663 277.6437 15.08838005 42714,6917.886,95.438,540.407,539.096,0.0
53983.0,STARLINK-5103,PAYLOAD,2023-07-11 09:46:45,15.08837793,9.26e-05,53.2162,248.7029,85.0477,275.0621,0.00011683,1.572e-05,0.0,0 STARLINK-5103,1 53983U 22125V   23192.40747585  .00001572  00000-0  11683-3 0  9994,2 53983  53.2162 248.7029 0000926  85.0477 275.0621 15.08837793 42896,6917.887,95.438,540.393,539.112,0.0
53983.0,STARLINK-5103,PAYLOAD,2023-07-12 12:48:18,15.08849669,9.75e-05,53.2158,243.6471,84.7888,275.3215,8.2933e-05,1.033e-05,0.0,0 STARLINK-5103,1 53983U 22125V   23193.53354882  .00001033  00000-0  82933-4 0  9992,2 53983  53.2158 243.6471 0000975  84.7888 275.3215 15.08849669 43069,6917.851,95.437,540.39,539.041,0.0
53983.0,STARLINK-5103,PAYLOAD,2023-07-13 09:28:20,15.08834513,0.000113,53.216,239.7825,80.2094,279.9025,5.1563e-06,-2.06e-06,0.0,0 STARLINK-5103,1 53983U 22125V   23194.39468126 -.00000206  00000-0  51563-5 0  9992,2 53983  53.2160 239.7825 0001130  80.2094 279.9025 15.08834513 43190,6917.897,95.438,540.544,538.98,0.0
53983.0,STARLINK-5103,PAYLOAD,2023-07-13 20:36:02,15.08840697,0.0001162,53.2164,237.7015,78.5103,281.602,3.2223e-05,2.25e-06,0.0,0 STARLINK-5103,1 53983U 22125V   23194.85835717  .00000225  00000-0  32223-4 0  9998,2 53983  53.2164 237.7015 0001162  78.5103 281.6020 15.08840697 43262,6917.878,95.438,540.547,538.939,0.0
53983.0,STARLINK-5103,PAYLOAD,2023-07-15 09:09:53,15.08843314,0.0001046,53.2161,230.8616,79.7054,280.4056,0.00011335,1.517e-05,0.0,0 STARLINK-5103,1 53983U 22125V   23196.38187228  .00001517  00000-0  11335-3 0  9990,2 53983  53.2161 230.8616 0001046  79.7054 280.4056 15.08843314 43499,6917.87,95.437,540.459,539.012,0.0
53983.0,STARLINK-5103,PAYLOAD,2023-07-16 02:39:08,15.08835597,0.0001008,53.2161,227.5884,103.8689,256.2415,9.2333e-06,-1.41e-06,0.0,0 STARLINK-5103,1 53983U 22125V   23197.11052069 -.00000141  00000-0  92333-5 0  9998,2 53983  53.2161 227.5884 0001008 103.8689 256.2415 15.08835597 43607,6917.894,95.438,540.456,539.062,0.0
53983.0,STARLINK-5103,PAYLOAD,2023-07-17 08:51:28,15.08838924,0.0001033,53.2157,221.9395,90.8491,269.262,2.3153e-05,8.1e-07,0.0,0 STARLINK-5103,1 53983U 22125V   23198.36908161  .00000081  00000-0  23153-4 0  9994,2 53983  53.2157 221.9395 0001033  90.8491 269.2620 15.08838924 43790,6917.884,95.438,540.463,539.034,0.0
53983.0,STARLINK-5103,PAYLOAD,2023-07-19 00:36:07,15.08839678,0.000101,53.2161,214.5056,91.3818,268.7289,8.3906e-05,1.048e-05,0.0,0 STARLINK-5103,1 53983U 22125V   23200.02508320  .00001048  00000-0  83906-4 0  9990,2 53983  53.2161 214.5056 0001010  91.3818 268.7289 15.08839678 44042,6917.881,95.438,540.445,539.048,0.0
53983.0,STARLINK-5103,PAYLOAD,2023-07-21 00:17:41,15.08840899,0.0001174,53.2166,205.5846,78.6045,281.5079,6.7274e-05,7.83e-06,0.0,0 STARLINK-5103,1 53983U 22125V   23202.01228549  .00000783  00000-0  67274-4 0  9998,2 53983  53.2166 205.5846 0001174  78.6045 281.5079 15.08840899 44345,6917.878,95.437,540.555,538.93,0.0
53983.0,STARLINK-5103,PAYLOAD,2023-07-24 07:46:58,15.08836545,0.0001156,53.2156,190.7153,92.4414,267.6711,1.2232e-05,-9.3e-07,0.0,0 STARLINK-5103,1 53983U 22125V   23205.32428944 -.00000093  00000-0  12232-4 0  9995,2 53983  53.2156 190.7153 0001156  92.4414 267.6711 15.08836545 44772,6917.891,95.438,540.556,538.956,0.0
53983.0,STARLINK-5103,PAYLOAD,2023-07-25 09:13:08,15.08838013,0.0001142,53.2164,185.9583,91.7005,268.4118,5.6268e-05,6.08e-06,0.0,0 STARLINK-5103,1 53983U 22125V   23206.38412986  .00000608  00000-0  56268-4 0  9999,2 53983  53.2164 185.9583 0001142  91.7005 268.4118 15.08838013 44937,6917.886,95.438,540.541,538.961,0.0
53983.0,STARLINK-5103,PAYLOAD,2023-07-26 07:28:32,15.08839812,0.0001146,53.2165,181.7946,89.9122,270.2002,3.0395e-05,1.96e-06,0.0,0 STARLINK-5103,1 53983U 22125V   23207.31149023  .00000196  00000-0  30395-4 0  9997,2 53983  53.2165 181.7946 0001146  89.9122 270.2002 15.08839812 45075,6917.881,95.438,540.539,538.953,0.0
53983.0,STARLINK-5103,PAYLOAD,2023-07-27 07:19:19,15.08843698,0.0001158,53.2166,177.3341,86.0902,274.0222,0.0001083,1.436e-05,0.0,0 STARLINK-5103,1 53983U 22125V   23208.30508698  .00001436  00000-0  10830-3 0  9993,2 53983  53.2166 177.3341 0001158  86.0902 274.0222 15.08843698 45290,6917.869,95.437,540.535,538.933,0.0
53983.0,STARLINK-5103,PAYLOAD,2023-07-27 15:16:15,15.08836575,0.000115,53.2167,175.8468,81.8525,278.2597,4.0561e-05,3.58e-06,0.0,0 STARLINK-5103,1 53983U 22125V   23208.63629365  .00000358  00000-0  40561-4 0  9991,2 53983  53.2167 175.8468 0001150  81.8525 278.2597 15.08836575 45343,6917.891,95.438,540.551,538.96,0.0
53983.0,STARLINK-5103,PAYLOAD,2023-07-27 21:37:48,15.08833003,0.0001187,53.2165,174.6592,79.3276,280.785,1.471e-05,-5.4e-07,0.0,0 STARLINK-5103,1 53983U 22125V   23208.90125723 -.00000054  00000-0  14710-4 0  9991,2 53983  53.2165 174.6592 0001187  79.3276 280.7850 15.08833003 45311,6917.902,95.438,540.588,538.946,0.0
53983.0,STARLINK-5103,PAYLOAD,2023-07-28 07:10:07,15.08834139,0.0001218,53.2166,172.8731,84.476,275.6372,-2.1112e-05,-6.24e-06,0.0,0 STARLINK-5103,1 53983U 22125V   23209.29869886 -.00000624  00000-0 -21112-4 0  9997,2 53983  53.2166 172.8731 0001218  84.4760 275.6372 15.08834139 45376,6917.898,95.438,540.606,538.921,0.0
53983.0,STARLINK-5103,PAYLOAD,2023-07-29 02:14:44,15.08843543,0.000124,53.2166,169.3043,87.2672,272.8462,9.2643e-05,1.187e-05,0.0,0 STARLINK-5103,1 53983U 22125V   23210.09356866  .00001187  00000-0  92643-4 0  9996,2 53983  53.2166 169.3043 0001240  87.2672 272.8462 15.08843543 45560,6917.87,95.437,540.592,538.877,0.0
53983.0,STARLINK-5103,PAYLOAD,2023-07-30 02:05:31,15.0883843,0.0001147,53.2165,164.8441,87.7983,272.3141,0.0001238,1.683e-05,0.0,0 STARLINK-5103,1 53983U 22125V   23211.08717183  .00001683  00000-0  12380-3 0  9999,2 53983  53.2165 164.8441 0001147  87.7983 272.3141 15.08838430 45712,6917.885,95.438,540.544,538.957,0.0
53983.0,STARLINK-5103,PAYLOAD,2023-07-31 05:07:04,15.08846841,0.0001149,53.2163,159.7901,92.8323,267.2801,1.4984e-05,-4.9e-07,0.0,0 STARLINK-5103,1 53983U 22125V   23212.21325033 -.00000049  00000-0  14984-4 0  9993,2 53983  53.2163 159.7901 0001149  92.8323 267.2801 15.08846841 45880,6917.859,95.437,540.519,538.93,0.0
53983.0,STARLINK-5103,PAYLOAD,2023-08-01 01:47:06,15.08834218,0.0001149,53.216,155.9249,84.783,275.3293,-1.2954e-05,-4.94e-06,0.0,0 STARLINK-5103,1 53983U 22125V   23213.07438144 -.00000494  00000-0 -12954-4 0  9996,2 53983  53.2160 155.9249 0001149  84.7830 275.3293 15.08834218 46019,6917.898,95.438,540.558,538.968,0.0
53983.0,STARLINK-5103,PAYLOAD,2023-08-02 04:48:39,15.08840001,0.0001184,53.217,150.868,91.4004,268.7124,3.2403e-05,2.28e-06,0.0,0 STARLINK-5103,1 53983U 22125V   23214.20046131  .00000228  00000-0  32403-4 0  9997,2 53983  53.2170 150.8680 0001184  91.4004 268.7124 15.08840001 46184,6917.88,95.438,540.564,538.926,0.0
53983.0,STARLINK-5103,PAYLOAD,2023-08-03 03:04:02,15.08850781,0.0001301,53.2175,146.7043,86.6851,273.429,0.00019613,2.836e-05,0.0,0 STARLINK-5103,1 53983U 22125V   23215.12781159  .00002836  00000-0  19613-3 0  9999,2 53983  53.2175 146.7043 0001301  86.6851 273.4290 15.08850781 46322,6917.847,95.437,540.612,538.812,0.0
53983.0,STARLINK-5103,PAYLOAD,2023-08-04 01:19:28,15.08833385,0.0001316,53.2166,142.54,100.8059,259.3081,-3.8967e-05,-9.08e-06,0.0,0 STARLINK-5103,1 53983U 22125V   23216.05518706 -.00000908  00000-0 -38967-4 0  9992,2 53983  53.2166 142.5400 0001316 100.8059 259.3081 15.08833385 46465,6917.901,95.438,540.676,538.855,0.0
53983.0,STARLINK-5103,PAYLOAD,2023-08-05 01:10:14,15.08851756,0.0001309,53.2167,138.0786,105.7604,254.3533,0.00014464,2.016e-05,0.0,0 STARLINK-5103,1 53983U 22125V   23217.04878017  .00002016  00000-0  14464-3 0  9991,2 53983  53.2167 138.0786 0001309 105.7604 254.3533 15.08851756 46611,6917.844,95.437,540.615,538.804,0.0
53983.0,STARLINK-5103,PAYLOAD,2023-08-06 04:11:47,15.08861218,0.0001343,53.2162,133.0245,98.5428,261.5717,0.00038659,5.874e-05,0.0,0 STARLINK-5103,1 53983U 22125V   23218.17485406  .00005874  00000-0  38659-3 0  9999,2 53983  53.2162 133.0245 0001343  98.5428 261.5717 15.08861218 46788,6917.816,95.436,540.61,538.751,0.0
53983.0,STARLINK-5103,PAYLOAD,2023-08-06 18:30:16,15.08836208,0.0001985,53.2159,130.3485,92.1706,267.9514,-0.00013871,-2.495e-05,0.0,0 STARLINK-5103,1 53983U 22125V   23218.77102522 -.00002495  00000-0 -13871-3 0  9997,2 53983  53.2159 130.3485 0001985  92.1706 267.9514 15.08836208 46877,6917.892,95.438,541.13,538.384,0.0
53983.0,STARLINK-5103,PAYLOAD,2023-08-08 02:17:58,15.08867143,0.0001197,53.2161,124.4044,71.9977,288.1145,0.0010555,0.00016563,0.0,0 STARLINK-5103,1 53983U 22125V   23220.09581899  .00016563  00000-0  10555-2 0  9997,2 53983  53.2161 124.4044 0001197  71.9977 288.1145 15.08867143 47075,6917.797,95.436,540.49,538.834,0.0
